{
  "type": "FeatureCollection",
  "features": [
    {
      "type": "Feature",
      "properties": {
        "norad_id": 67047,
        "name": "STARLINK-35779",
        "group": "last-30-days",
        "lat": -39.5652185076474,
        "lon": -27.496208927492113,
        "alt_km": 390.3569393875978,
        "timestamp": "2025-12-27T20:30:58.025371+00:00",
        "meta_object_name": "STARLINK-35779",
        "meta_object_id": "2025-294T",
        "meta_epoch": "2025-12-27T12:00:02.000160",
        "meta_mean_motion": 15.61424823,
        "meta_eccentricity": 0.0001315,
        "meta_inclination": 42.9991,
        "meta_ra_of_asc_node": 92.1484,
        "meta_arg_of_pericenter": 284.507,
        "meta_mean_anomaly": 128.6963,
        "meta_ephemeris_type": 0,
        "meta_classification_type": "U",
        "meta_norad_cat_id": 67047,
        "meta_element_set_no": 999,
        "meta_rev_at_epoch": 248,
        "meta_bstar": -0.025134,
        "meta_mean_motion_dot": -0.0194479,
        "meta_mean_motion_ddot": 0,
        "tle_line1": "1 67047U 25294T   25361.50002315 -.01944790  00000+0 -25134-1 0  9990",
        "tle_line2": "2 67047  42.9991  92.1484 0001315 284.5070 128.6963 15.61424823  2489"
      },
      "geometry": {
        "type": "Point",
        "coordinates": [
          -27.496208927492113,
          -39.5652185076474
        ]
      }
    },
    {
      "type": "Feature",
      "properties": {
        "norad_id": 67048,
        "name": "STARLINK-35905",
        "group": "last-30-days",
        "lat": -40.1500208455162,
        "lon": -25.101171330492612,
        "alt_km": 390.3134374890942,
        "timestamp": "2025-12-27T20:30:58.025381+00:00",
        "meta_object_name": "STARLINK-35905",
        "meta_object_id": "2025-294U",
        "meta_epoch": "2025-12-27T12:00:02.000160",
        "meta_mean_motion": 15.61415998,
        "meta_eccentricity": 0.0001371,
        "meta_inclination": 42.9994,
        "meta_ra_of_asc_node": 92.1438,
        "meta_arg_of_pericenter": 283.7833,
        "meta_mean_anomaly": 131.3595,
        "meta_ephemeris_type": 0,
        "meta_classification_type": "U",
        "meta_norad_cat_id": 67048,
        "meta_element_set_no": 999,
        "meta_rev_at_epoch": 259,
        "meta_bstar": -0.02496,
        "meta_mean_motion_dot": -0.01932339,
        "meta_mean_motion_ddot": 0,
        "tle_line1": "1 67048U 25294U   25361.50002315 -.01932339  00000+0 -24960-1 0  9993",
        "tle_line2": "2 67048  42.9994  92.1438 0001371 283.7833 131.3595 15.61415998  2599"
      },
      "geometry": {
        "type": "Point",
        "coordinates": [
          -25.101171330492612,
          -40.1500208455162
        ]
      }
    },
    {
      "type": "Feature",
      "properties": {
        "norad_id": 67049,
        "name": "STARLINK-35877",
        "group": "last-30-days",
        "lat": -40.71635501532456,
        "lon": -22.51053664772457,
        "alt_km": 390.2518257371612,
        "timestamp": "2025-12-27T20:30:58.025391+00:00",
        "meta_object_name": "STARLINK-35877",
        "meta_object_id": "2025-294V",
        "meta_epoch": "2025-12-27T12:00:02.000160",
        "meta_mean_motion": 15.61389613,
        "meta_eccentricity": 0.0001561,
        "meta_inclination": 42.9996,
        "meta_ra_of_asc_node": 92.1396,
        "meta_arg_of_pericenter": 284.3645,
        "meta_mean_anomaly": 132.8622,
        "meta_ephemeris_type": 0,
        "meta_classification_type": "U",
        "meta_norad_cat_id": 67049,
        "meta_element_set_no": 999,
        "meta_rev_at_epoch": 267,
        "meta_bstar": -0.024764,
        "meta_mean_motion_dot": -0.01917383,
        "meta_mean_motion_ddot": 0,
        "tle_line1": "1 67049U 25294V   25361.50002315 -.01917383  00000+0 -24764-1 0  9998",
        "tle_line2": "2 67049  42.9996  92.1396 0001561 284.3645 132.8622 15.61389613  2674"
      },
      "geometry": {
        "type": "Point",
        "coordinates": [
          -22.51053664772457,
          -40.71635501532456
        ]
      }
    },
    {
      "type": "Feature",
      "properties": {
        "norad_id": 67050,
        "name": "STARLINK-36078",
        "group": "last-30-days",
        "lat": -41.22602691530266,
        "lon": -19.86465236575595,
        "alt_km": 390.4732986372892,
        "timestamp": "2025-12-27T20:30:58.025401+00:00",
        "meta_object_name": "STARLINK-36078",
        "meta_object_id": "2025-294W",
        "meta_epoch": "2025-12-27T12:00:02.000160",
        "meta_mean_motion": 15.61384304,
        "meta_eccentricity": 0.0001364,
        "meta_inclination": 42.9995,
        "meta_ra_of_asc_node": 92.1335,
        "meta_arg_of_pericenter": 287.1099,
        "meta_mean_anomaly": 132.2057,
        "meta_ephemeris_type": 0,
        "meta_classification_type": "U",
        "meta_norad_cat_id": 67050,
        "meta_element_set_no": 999,
        "meta_rev_at_epoch": 259,
        "meta_bstar": -0.025132,
        "meta_mean_motion_dot": -0.01941923,
        "meta_mean_motion_ddot": 0,
        "tle_line1": "1 67050U 25294W   25361.50002315 -.01941923  00000+0 -25132-1 0  9997",
        "tle_line2": "2 67050  42.9995  92.1335 0001364 287.1099 132.2057 15.61384304  2592"
      },
      "geometry": {
        "type": "Point",
        "coordinates": [
          -19.86465236575595,
          -41.22602691530266
        ]
      }
    },
    {
      "type": "Feature",
      "properties": {
        "norad_id": 67051,
        "name": "STARLINK-35706",
        "group": "last-30-days",
        "lat": -41.67287283919894,
        "lon": -17.186044165689292,
        "alt_km": 390.43607184198663,
        "timestamp": "2025-12-27T20:30:58.025412+00:00",
        "meta_object_name": "STARLINK-35706",
        "meta_object_id": "2025-294X",
        "meta_epoch": "2025-12-27T12:00:02.000160",
        "meta_mean_motion": 15.61362859,
        "meta_eccentricity": 0.0001447,
        "meta_inclination": 42.9995,
        "meta_ra_of_asc_node": 92.1286,
        "meta_arg_of_pericenter": 285.0243,
        "meta_mean_anomaly": 136.3772,
        "meta_ephemeris_type": 0,
        "meta_classification_type": "U",
        "meta_norad_cat_id": 67051,
        "meta_element_set_no": 999,
        "meta_rev_at_epoch": 267,
        "meta_bstar": -0.025039,
        "meta_mean_motion_dot": -0.01934238,
        "meta_mean_motion_ddot": 0,
        "tle_line1": "1 67051U 25294X   25361.50002315 -.01934238  00000+0 -25039-1 0  9995",
        "tle_line2": "2 67051  42.9995  92.1286 0001447 285.0243 136.3772 15.61362859  2677"
      },
      "geometry": {
        "type": "Point",
        "coordinates": [
          -17.186044165689292,
          -41.67287283919894
        ]
      }
    },
    {
      "type": "Feature",
      "properties": {
        "norad_id": 67052,
        "name": "STARLINK-35720",
        "group": "last-30-days",
        "lat": -42.035447226356816,
        "lon": -14.63503241333373,
        "alt_km": 390.5790541985798,
        "timestamp": "2025-12-27T20:30:58.025422+00:00",
        "meta_object_name": "STARLINK-35720",
        "meta_object_id": "2025-294Y",
        "meta_epoch": "2025-12-27T12:00:02.000160",
        "meta_mean_motion": 15.6136983,
        "meta_eccentricity": 0.000131,
        "meta_inclination": 42.9994,
        "meta_ra_of_asc_node": 92.1232,
        "meta_arg_of_pericenter": 288.402,
        "meta_mean_anomaly": 134.9426,
        "meta_ephemeris_type": 0,
        "meta_classification_type": "U",
        "meta_norad_cat_id": 67052,
        "meta_element_set_no": 999,
        "meta_rev_at_epoch": 266,
        "meta_bstar": -0.025321,
        "meta_mean_motion_dot": -0.01953771,
        "meta_mean_motion_ddot": 0,
        "tle_line1": "1 67052U 25294Y   25361.50002315 -.01953771  00000+0 -25321-1 0  9993",
        "tle_line2": "2 67052  42.9994  92.1232 0001310 288.4020 134.9426 15.61369830  2662"
      },
      "geometry": {
        "type": "Point",
        "coordinates": [
          -14.63503241333373,
          -42.035447226356816
        ]
      }
    },
    {
      "type": "Feature",
      "properties": {
        "norad_id": 67053,
        "name": "STARLINK-35739",
        "group": "last-30-days",
        "lat": -42.3512923272226,
        "lon": -11.959276861946385,
        "alt_km": 390.6113166694622,
        "timestamp": "2025-12-27T20:30:58.025432+00:00",
        "meta_object_name": "STARLINK-35739",
        "meta_object_id": "2025-294Z",
        "meta_epoch": "2025-12-27T12:00:02.000160",
        "meta_mean_motion": 15.61353033,
        "meta_eccentricity": 0.0001323,
        "meta_inclination": 42.9996,
        "meta_ra_of_asc_node": 92.1182,
        "meta_arg_of_pericenter": 289.707,
        "meta_mean_anomaly": 135.6697,
        "meta_ephemeris_type": 0,
        "meta_classification_type": "U",
        "meta_norad_cat_id": 67053,
        "meta_element_set_no": 999,
        "meta_rev_at_epoch": 231,
        "meta_bstar": -0.025245,
        "meta_mean_motion_dot": -0.01947507,
        "meta_mean_motion_ddot": 0,
        "tle_line1": "1 67053U 25294Z   25361.50002315 -.01947507  00000+0 -25245-1 0  9999",
        "tle_line2": "2 67053  42.9996  92.1182 0001323 289.7070 135.6697 15.61353033  2310"
      },
      "geometry": {
        "type": "Point",
        "coordinates": [
          -11.959276861946385,
          -42.3512923272226
        ]
      }
    }
  ]
}